ANIK F2                 
1 28378U 04027A   25018.60267823 -.00000041  00000+0  00000+0 0  9995
2 28378   1.9539  86.3601 0001538 291.0875 206.6452  1.00272463 36100
AMC-15                  
1 28446U 04041A   25018.37343331 -.00000080  00000+0  00000+0 0  9993
2 28446   0.0312 313.7547 0002340 346.9006 206.7503  1.00272293 74155
NSS-10                  
1 28526U 05003A   25018.45822870 -.00000245  00000+0  00000+0 0  9993
2 28526   5.1585  76.6718 0003078 224.1005 304.8267  1.00272342 47996
XTAR-EUR                
1 28542U 05005A   25017.82371732  .00000155  00000+0  00000+0 0  9998
2 28542   3.0037  83.1611 0006330 217.0776 142.7619  1.00271078 73026
XM-3 (RHYTHM)           
1 28626U 05008A   25018.31259931 -.00000202  00000+0  00000+0 0  9999
2 28626   0.0109 138.9742 0006501 102.9735 263.4052  1.00311120 37460
INMARSAT 4-F1           
1 28628U 05009A   25018.53559116  .00000040  00000+0  00000+0 0  9993
2 28628   4.5149  41.8795 0002422 274.4028 172.7710  1.00273816 72510
DIRECTV 8               
1 28659U 05019A   25018.59514819  .00000010  00000+0  00000+0 0  9992
2 28659   0.0152  65.8754 0002966 237.8358 269.7194  1.00271889 71916
GALAXY 28 (G-28)        
1 28702U 05022A   25018.51947947 -.00000177  00000+0  00000+0 0  9994
2 28702   1.9691  85.3978 0006685 200.7248 290.0295  1.00270865 46821
THAICOM 4               
1 28786U 05028A   25017.38591101 -.00000358  00000+0  00000+0 0  9994
2 28786   0.0189  47.2352 0002657 246.1387  82.0794  1.00270442 47073
GALAXY 14 (G-14)        
1 28790U 05030A   25018.61034220  .00000038  00000+0  00000+0 0  9997
2 28790   3.6924  81.2885 0002196 277.3173 236.7000  0.98924433 71134
ANIK F1R                
1 28868U 05036A   25018.60541751 -.00000067  00000+0  00000+0 0  9993
2 28868   2.9899  83.0238 0001774 246.3999 259.4727  1.00272124 41297
SYRACUSE 3A             
1 28885U 05041B   25018.54137337  .00000137  00000+0  00000+0 0  9999
2 28885   3.3269  82.2831 0002758 217.5436  35.0411  1.00269353 70583
INMARSAT 4-F2           
1 28899U 05044A   25018.42269456 -.00000254  00000+0  00000+0 0  9993
2 28899   4.4357  43.1728 0002712 263.1832 107.3457  1.00271143 70365
SPACEWAY 2              
1 28903U 05046B   25018.39011437 -.00000228  00000+0  00000+0 0  9992
2 28903   4.1494  77.7045 0001523  64.5841  95.5782  0.99065497 46178
METEOSAT-9 (MSG-2)      
1 28912U 05049B   25017.76029028  .00000128  00000+0  00000+0 0  9998
2 28912   8.1824  59.0162 0000587 214.1745 163.6963  1.00266256 69911
EUTELSAT 174A           
1 28924U 05052A   25018.60773713  .00000016  00000+0  00000+0 0  9992
2 28924   2.9101  82.9316 0006193 220.6270 207.4726  1.00269736 47178
ECHOSTAR 10             
1 28935U 06003A   25018.60256786 -.00000046  00000+0  00000+0 0  9991
2 28935   0.0417 276.1527 0001559 350.1539 318.6497  1.00272584 69302
SPAINSAT                
1 28945U 06007A   25017.75701120 -.00000210  00000+0  00000+0 0  9991
2 28945   0.0576 248.3012 0004798  27.1994  84.4184  1.00273711 69059
EUTELSAT HOTBIRD 13E    
1 28946U 06007B   25018.46239897 -.00000118  00000+0  00000+0 0  9995
2 28946   0.7685  93.5589 0001836 251.5584 283.4429  1.00272776 69160
JCSAT-5A                
1 29045U 06010A   25018.56335413 -.00000320  00000+0  00000+0 0  9997
2 29045   0.0149  58.7411 0002009 276.3395 117.9778  1.00266595 68613
ASTRA 1KR               
1 29055U 06012A   25014.29979882  .00000119  00000+0  00000+0 0  9995
2 29055   0.0305 310.8699 0004481 309.9747 340.3019  1.00275097 68547
EWS-G1 (GOES 13)        
1 29155U 06018A   25018.54491187  .00000029  00000+0  00000+0 0  9991
2 29155   3.1900  82.7257 0065532 258.8272 233.0105  0.98829165 38163
GALAXY 16 (G-16)        
1 29236U 06023A   25018.50497225 -.00000118  00000+0  00000+0 0  9992
2 29236   0.0093 244.0475 0002962  61.6486 255.2149  1.00271582 67818
EUTELSAT HOTBIRD 13B    
1 29270U 06032A   25018.54371914  .00000164  00000+0  00000+0 0  9990
2 29270   0.3289  86.6399 0004769 223.5623  36.7985  1.00273932 42140
JCSAT-3A                
1 29272U 06033A   25018.41965375 -.00000337  00000+0  00000+0 0  9992
2 29272   0.0205  50.9121 0001939 259.2308  86.9752  1.00272067 42570
SYRACUSE 3B             
1 29273U 06033B   25018.32347703  .00000029  00000+0  00000+0 0  9999
2 29273   1.5771  86.7339 0005376 211.3183 299.6761  1.00272697 67515
KOREASAT 5 (MUGUNGWHA 5)
1 29349U 06034A   25018.55961826 -.00000350  00000+0  00000+0 0  9995
2 29349   0.4496  91.1044 0002067 251.1445  90.4564  1.00272709 36159
DIRECTV 9S              
1 29494U 06043A   25018.51704682 -.00000105  00000+0  00000+0 0  9995
2 29494   1.0890  87.2674 0003376 222.1639 253.6401  1.00271550 46222
OPTUS D1                
1 29495U 06043B   25018.58780260 -.00000175  00000+0  00000+0 0  9996
2 29495   1.7040  86.1650 0003775 215.5873 180.0775  1.00271982 66967
BADR-4                  
1 29526U 06051A   25018.54232905  .00000153  00000+0  00000+0 0  9999
2 29526   0.6732  85.9168 0008341 226.9947  26.7382  1.00269754 46109
WILDBLUE-1              
1 29643U 06054A   25018.60267824 -.00000040  00000+0  00000+0 0  9993
2 29643   1.4712  87.2918 0001936 211.9521 284.7584  1.00272261 48636
SKYNET 5A               
1 30794U 07007B   25018.55605618 -.00000265  00000+0  00000+0 0  9991
2 30794   3.9854  79.9854 0004062 225.6552 107.9088  1.00273593 65537
ANIK F3                 
1 31102U 07009A   25018.59514853  .00000008  00000+0  00000+0 0  9995
2 31102   0.0127  81.6111 0001907 234.9734 257.1678  1.00271502 41409
ASTRA 1L                
1 31306U 07016A   25018.32660473  .00000128  00000+0  00000+0 0  9993
2 31306   0.0483 348.0886 0005128 314.1847 312.4431  1.00273377 39821
GALAXY 17 (G-17)        
1 31307U 07016B   25018.52026140 -.00000198  00000+0  00000+0 0  9991
2 31307   1.6646  86.5663 0006032 198.5870 295.2808  1.00270140 64641
ZHONGXING-6B            
1 31800U 07031A   25018.56005267 -.00000353  00000+0  00000+0 0  9990
2 31800   1.0680  88.1419 0004649 215.8832 131.0864  1.00270987 64267
DIRECTV 10              
1 31862U 07032A   25018.44528350 -.00000094  00000+0  00000+0 0  9991
2 31862   0.0036 242.6959 0000665  50.8596 242.0223  1.00272462 40438
BSAT-3A                 
1 32019U 07036B   25018.41609167 -.00000342  00000+0  00000+0 0  9999
2 32019   0.0555 237.0557 0003326  36.5422 104.0827  1.00272564 45364
OPTUS D2                
1 32252U 07044A   25018.59517703 -.00000101  00000+0  00000+0 0  9993
2 32252   0.7403  88.7737 0007056 204.8215 199.0393  1.00272148 63413
INTELSAT 11 (IS-11)     
1 32253U 07044B   25018.45718615 -.00000261  00000+0  00000+0 0  9991
2 32253   2.2230  85.1111 0004224 226.0104 288.5465  1.00271956 63334
WGS F1 (USA 195)        
1 32258U 07046A   25018.45727302 -.00000258  00000+0  00000+0 0  9997
2 32258   0.0737  87.8704 0000769 228.6820 283.6454  1.00274232 47175
SKYNET 5B               
1 32294U 07056B   25018.47065264  .00000147  00000+0  00000+0 0  9998
2 32294   3.9374  79.6529 0004105 216.2985  16.6858  1.00267992 63031
ASTRA 4A                
1 32299U 07057A   25018.53798503  .00000041  00000+0  00000+0 0  9993
2 32299   0.0363 291.9482 0002671 358.9042  25.7986  1.00273255 46485
HORIZONS-2              
1 32388U 07063B   25018.52252029 -.00000245  00000+0  00000+0 0  9993
2 32388   1.2707  87.1199 0002073 218.0207 287.3137  1.00273340 62650
THURAYA-3               
1 32404U 08001A   25018.55666433 -.00000295  00000+0  00000+0 0  9991
2 32404   5.1588  33.9912 0002639 266.6855 116.4117  1.00272598 62336
THOR 5                  
1 32487U 08006A   25018.32269510 -.00000001  00000+0  00000+0 0  9992
2 32487   0.0583 253.5074 0002698  53.5963 286.2711  1.00273712 62158
AMC-14                  
1 32708U 08011A   25017.88730093  .00000071  00000+0  00000+0 0  9999
2 32708  23.3685  26.7180 0041892 351.1712  76.5984  1.00275787 63002
DIRECTV 11              
1 32729U 08013A   25018.50497250 -.00000118  00000+0  00000+0 0  9992
2 32729   0.0072 300.1120 0000779 323.7264 296.9003  1.00277633 40430
ICO G1                  
1 32763U 08016A   25018.51869755 -.00000165  00000+0  00000+0 0  9999
2 32763   5.2382  36.3405 0002533 258.1462 277.5515  1.00271053 61384
VINASAT-1               
1 32767U 08018A   25018.49185146 -.00000320  00000+0  00000+0 0  9990
2 32767   0.0373 279.5912 0001923  41.7918 105.7372  1.00271315 61428
STAR ONE C2             
1 32768U 08018B   25018.38133944 -.00000268  00000+0  00000+0 0  9999
2 32768   0.0434 312.7407 0002881 356.6924 240.8384  1.00269388 61493
AMOS-3                  
1 32794U 08022A   25018.32200006 -.00000028  00000+0  00000+0 0  9995
2 32794   0.0205 114.8771 0002929 169.3593 305.5056  1.00271810 77177
GALAXY 18 (G-18)        
1 32951U 08024A   25018.59126076  .00000034  00000+0  00000+0 0  9991
2 32951   0.0155  80.0831 0003102 224.3365 263.6368  1.00271894 40699
ZHONGXING-9             
1 33051U 08028A   25018.55544801 -.00000239  00000+0  00000+0 0  9991
2 33051   0.0169  96.9974 0004193 219.1875  94.1778  1.00270739 60870
SKYNET 5C               
1 33055U 08030A   25018.39072255 -.00000133  00000+0  00000+0 0  9992
2 33055   2.4643  83.0929 0005269 224.0991 293.6803  1.00271810 60790
TURKSAT 3A              
1 33056U 08030B   25018.25970675  .00000154  00000+0  00000+0 0  9993
2 33056   0.0489  93.9669 0003095 212.2811 307.1096  1.00272949 47197
INTELSAT 25 (IS-25)     
1 33153U 08034A   25018.45944503 -.00000216  00000+0  00000+0 0  9998
2 33153   1.3774  86.7787 0003112 215.6175 309.5977  1.00272121 60536
BADR-6                  
1 33154U 08034B   25018.54554363  .00000022  00000+0  00000+0 0  9994
2 33154   1.5204  85.1814 0006427 298.7782 332.9453  0.98744413 60587
ECHOSTAR 11             
1 33207U 08035A   25018.60390490 -.00000047  00000+0  00000+0 0  9998
2 33207   0.0250 292.9518 0002787 355.4576 297.2303  1.00271475 46057
